{"type": "FeatureCollection", "features": [ {"type": "Feature", "properties": {"norad_id": 30690, "name": "FENGYUN 1C DEB", "group": "fengyun-1c-debris", "lat": 11.801795634878637, "lon": -75.00522988899185, "alt_km": 825.8911726401857, "timestamp": "2025-12-22T11:33:20.717439+00:00", "meta": {"OBJECT_NAME": "FENGYUN 1C DEB", "OBJECT_ID": "1999-025AQY", "EPOCH": "2025-12-21T14:05:15.585216", "MEAN_MOTION": 14.0236051, "ECCENTRICITY": 0.0105027, "INCLINATION": 99.1595, "RA_OF_ASC_NODE": 286.0277, "ARG_OF_PERICENTER": 51.8867, "MEAN_ANOMALY": 127.4704, "EPHEMERIS_TYPE": 0, "CLASSIFICATION_TYPE": "U", "NORAD_CAT_ID": 30690, "ELEMENT_SET_NO": 999, "REV_AT_EPOCH": 95831, "BSTAR": 0.0012317, "MEAN_MOTION_DOT": 1.94e-05, "MEAN_MOTION_DDOT": 0}, "tle": {"line1": "1 30690U 99025AQY 25355.58698594  .00001940  00000+0  12317-2 0  9996", "line2": "2 30690  99.1595 286.0277 0105027  51.8867 127.4704 14.02360510958313"}}, "geometry": {"type": "Point", "coordinates": [-75.00522988899185, 11.801795634878637]}}, {"type": "Feature", "properties": {"norad_id": 30691, "name": "FENGYUN 1C DEB", "group": "fengyun-1c-debris", "lat": -77.71056419795843, "lon": 52.25211372916129, "alt_km": 905.5054659984526, "timestamp": "2025-12-22T11:33:20.717449+00:00", "meta": {"OBJECT_NAME": "FENGYUN 1C DEB", "OBJECT_ID": "1999-025AQZ", "EPOCH": "2025-12-21T19:31:23.192832", "MEAN_MOTION": 13.89457609, "ECCENTRICITY": 0.0139523, "INCLINATION": 98.7443, "RA_OF_ASC_NODE": 6.6727, "ARG_OF_PERICENTER": 208.2334, "MEAN_ANOMALY": 329.2552, "EPHEMERIS_TYPE": 0, "CLASSIFICATION_TYPE": "U", "NORAD_CAT_ID": 30691, "ELEMENT_SET_NO": 999, "REV_AT_EPOCH": 95242, "BSTAR": 0.00085914, "MEAN_MOTION_DOT": 1.094e-05, "MEAN_MOTION_DDOT": 0}, "tle": {"line1": "1 30691U 99025AQZ 25355.81346288  .00001094  00000+0  85914-3 0  9997", "line2": "2 30691  98.7443   6.6727 0139523 208.2334 329.2552 13.89457609952421"}}, "geometry": {"type": "Point", "coordinates": [52.25211372916129, -77.71056419795843]}}, {"type": "Feature", "properties": {"norad_id": 30693, "name": "FENGYUN 1C DEB", "group": "fengyun-1c-debris", "lat": 32.35355610674671, "lon": 166.88247352820252, "alt_km": 824.8343014751317, "timestamp": "2025-12-22T11:33:20.717459+00:00", "meta": {"OBJECT_NAME": "FENGYUN 1C DEB", "OBJECT_ID": "1999-025ARB", "EPOCH": "2025-12-21T21:16:12.836352", "MEAN_MOTION": 14.13296851, "ECCENTRICITY": 0.0029724, "INCLINATION": 98.6873, "RA_OF_ASC_NODE": 340.7466, "ARG_OF_PERICENTER": 141.4545, "MEAN_ANOMALY": 218.8758, "EPHEMERIS_TYPE": 0, "CLASSIFICATION_TYPE": "U", "NORAD_CAT_ID": 30693, "ELEMENT_SET_NO": 999, "REV_AT_EPOCH": 97064, "BSTAR": 0.00027529, "MEAN_MOTION_DOT": 4.76e-06, "MEAN_MOTION_DDOT": 0}, "tle": {"line1": "1 30693U 99025ARB 25355.88625968  .00000476  00000+0  27529-3 0  9992", "line2": "2 30693  98.6873 340.7466 0029724 141.4545 218.8758 14.13296851970647"}}, "geometry": {"type": "Point", "coordinates": [166.88247352820252, 32.35355610674671]}}, {"type": "Feature", "properties": {"norad_id": 30694, "name": "FENGYUN 1C DEB", "group": "fengyun-1c-debris", "lat": 80.83112895625078, "lon": -116.83117969072347, "alt_km": 690.7924083431981, "timestamp": "2025-12-22T11:33:20.717472+00:00", "meta": {"OBJECT_NAME": "FENGYUN 1C DEB", "OBJECT_ID": "1999-025ARC", "EPOCH": "2025-12-22T03:04:31.917216", "MEAN_MOTION": 14.86718521, "ECCENTRICITY": 0.012946, "INCLINATION": 99.0482, "RA_OF_ASC_NODE": 323.6201, "ARG_OF_PERICENTER": 264.595, "MEAN_ANOMALY": 94.0482, "EPHEMERIS_TYPE": 0, "CLASSIFICATION_TYPE": "U", "NORAD_CAT_ID": 30694, "ELEMENT_SET_NO": 999, "REV_AT_EPOCH": 235, "BSTAR": 0.0014692, "MEAN_MOTION_DOT": 0.0001518, "MEAN_MOTION_DDOT": 0}, "tle": {"line1": "1 30694U 99025ARC 25356.12814719  .00015180  00000+0  14692-2 0  9999", "line2": "2 30694  99.0482 323.6201 0129460 264.5950  94.0482 14.86718521  2356"}}, "geometry": {"type": "Point", "coordinates": [-116.83117969072347, 80.83112895625078]}}, {"type": "Feature", "properties": {"norad_id": 30696, "name": "FENGYUN 1C DEB", "group": "fengyun-1c-debris", "lat": 2.551998737343018, "lon": 44.99811380599568, "alt_km": 749.0370153702052, "timestamp": "2025-12-22T11:33:20.717483+00:00", "meta": {"OBJECT_NAME": "FENGYUN 1C DEB", "OBJECT_ID": "1999-025ARE", "EPOCH": "2025-12-22T01:42:41.537376", "MEAN_MOTION": 14.44811288, "ECCENTRICITY": 0.0089648, "INCLINATION": 98.3876, "RA_OF_ASC_NODE": 44.97, "ARG_OF_PERICENTER": 97.8445, "MEAN_ANOMALY": 293.6638, "EPHEMERIS_TYPE": 0, "CLASSIFICATION_TYPE": "U", "NORAD_CAT_ID": 30696, "ELEMENT_SET_NO": 999, "REV_AT_EPOCH": 98439, "BSTAR": 0.00074439, "MEAN_MOTION_DOT": 2.673e-05, "MEAN_MOTION_DDOT": 0}, "tle": {"line1": "1 30696U 99025ARE 25356.07131409  .00002673  00000+0  74439-3 0  9992", "line2": "2 30696  98.3876  44.9700 0089648  97.8445 293.6638 14.44811288984394"}}, "geometry": {"type": "Point", "coordinates": [44.99811380599568, 2.551998737343018]}}, {"type": "Feature", "properties": {"norad_id": 30697, "name": "FENGYUN 1C DEB", "group": "fengyun-1c-debris", "lat": 59.835357038478406, "lon": -111.06687455907563, "alt_km": 791.8276652403047, "timestamp": "2025-12-22T11:33:20.717493+00:00", "meta": {"OBJECT_NAME": "FENGYUN 1C DEB", "OBJECT_ID": "1999-025ARF", "EPOCH": "2025-12-22T02:39:29.097216", "MEAN_MOTION": 14.13570232, "ECCENTRICITY": 0.0088092, "INCLINATION": 98.9054, "RA_OF_ASC_NODE": 52.913, "ARG_OF_PERICENTER": 159.2131, "MEAN_ANOMALY": 234.7348, "EPHEMERIS_TYPE": 0, "CLASSIFICATION_TYPE": "U", "NORAD_CAT_ID": 30697, "ELEMENT_SET_NO": 999, "REV_AT_EPOCH": 96393, "BSTAR": 0.0014456, "MEAN_MOTION_DOT": 2.784e-05, "MEAN_MOTION_DDOT": 0}, "tle": {"line1": "1 30697U 99025ARF 25356.11075344  .00002784  00000+0  14456-2 0  9998", "line2": "2 30697  98.9054  52.9130 0088092 159.2131 234.7348 14.13570232963930"}}, "geometry": {"type": "Point", "coordinates": [-111.06687455907563, 59.835357038478406]}}, {"type": "Feature", "properties": {"norad_id": 30699, "name": "FENGYUN 1C DEB", "group": "fengyun-1c-debris", "lat": -18.957032326732797, "lon": 120.15527221470417, "alt_km": 741.5346765748, "timestamp": "2025-12-22T11:33:20.717503+00:00", "meta": {"OBJECT_NAME": "FENGYUN 1C DEB", "OBJECT_ID": "1999-025ARH", "EPOCH": "2025-12-20T21:28:34.815360", "MEAN_MOTION": 14.47048072, "ECCENTRICITY": 0.000475, "INCLINATION": 99.3129, "RA_OF_ASC_NODE": 115.1805, "ARG_OF_PERICENTER": 233.9201, "MEAN_ANOMALY": 126.1549, "EPHEMERIS_TYPE": 0, "CLASSIFICATION_TYPE": "U", "NORAD_CAT_ID": 30699, "ELEMENT_SET_NO": 999, "REV_AT_EPOCH": 97731, "BSTAR": 0.0014033, "MEAN_MOTION_DOT": 5.061e-05, "MEAN_MOTION_DDOT": 0}, "tle": {"line1": "1 30699U 99025ARH 25354.89484740  .00005061  00000+0  14033-2 0  9999", "line2": "2 30699  99.3129 115.1805 0004750 233.9201 126.1549 14.47048072977311"}}, "geometry": {"type": "Point", "coordinates": [120.15527221470417, -18.957032326732797]}}, {"type": "Feature", "properties": {"norad_id": 30700, "name": "FENGYUN 1C DEB", "group": "fengyun-1c-debris", "lat": -20.58075897036516, "lon": 27.75191341838312, "alt_km": 862.5628393630832, "timestamp": "2025-12-22T11:33:20.717516+00:00", "meta": {"OBJECT_NAME": "FENGYUN 1C DEB", "OBJECT_ID": "1999-025ARJ", "EPOCH": "2025-12-22T01:32:05.089056", "MEAN_MOTION": 14.23801948, "ECCENTRICITY": 0.0087368, "INCLINATION": 98.5406, "RA_OF_ASC_NODE": 24.1117, "ARG_OF_PERICENTER": 116.4143, "MEAN_ANOMALY": 244.6035, "EPHEMERIS_TYPE": 0, "CLASSIFICATION_TYPE": "U", "NORAD_CAT_ID": 30700, "ELEMENT_SET_NO": 999, "REV_AT_EPOCH": 97702, "BSTAR": 0.00016243, "MEAN_MOTION_DOT": 3.45e-06, "MEAN_MOTION_DDOT": 0}, "tle": {"line1": "1 30700U 99025ARJ 25356.06394779  .00000345  00000+0  16243-3 0  9991", "line2": "2 30700  98.5406  24.1117 0087368 116.4143 244.6035 14.23801948977021"}}, "geometry": {"type": "Point", "coordinates": [27.75191341838312, -20.58075897036516]}}, {"type": "Feature", "properties": {"norad_id": 30701, "name": "FENGYUN 1C DEB", "group": "fengyun-1c-debris", "lat": 9.005883963102, "lon": 36.145528372656656, "alt_km": 837.2451934802602, "timestamp": "2025-12-22T11:33:20.717526+00:00", "meta": {"OBJECT_NAME": "FENGYUN 1C DEB", "OBJECT_ID": "1999-025ARK", "EPOCH": "2025-12-22T01:27:47.661120", "MEAN_MOTION": 14.13935294, "ECCENTRICITY": 0.0035721, "INCLINATION": 98.7169, "RA_OF_ASC_NODE": 37.1288, "ARG_OF_PERICENTER": 76.9677, "MEAN_ANOMALY": 313.308, "EPHEMERIS_TYPE": 0, "CLASSIFICATION_TYPE": "U", "NORAD_CAT_ID": 30701, "ELEMENT_SET_NO": 999, "REV_AT_EPOCH": 97251, "BSTAR": 2.0171e-05, "MEAN_MOTION_DOT": -4e-08, "MEAN_MOTION_DDOT": 0}, "tle": {"line1": "1 30701U 99025ARK 25356.06096830 -.00000004  00000+0  20171-4 0  9998", "line2": "2 30701  98.7169  37.1288 0035721  76.9677 313.3080 14.13935294972515"}}, "geometry": {"type": "Point", "coordinates": [36.145528372656656, 9.005883963102]}}, {"type": "Feature", "properties": {"norad_id": 30702, "name": "FENGYUN 1C DEB", "group": "fengyun-1c-debris", "lat": -47.564354122759894, "lon": 25.694094141116736, "alt_km": 848.2446484178054, "timestamp": "2025-12-22T11:33:20.717536+00:00", "meta": {"OBJECT_NAME": "FENGYUN 1C DEB", "OBJECT_ID": "1999-025ARL", "EPOCH": "2025-12-21T12:34:23.963808", "MEAN_MOTION": 14.03615257, "ECCENTRICITY": 0.00689622, "INCLINATION": 98.7688, "RA_OF_ASC_NODE": 15.0514, "ARG_OF_PERICENTER": 276.879, "MEAN_ANOMALY": 238.3151, "EPHEMERIS_TYPE": 0, "CLASSIFICATION_TYPE": "U", "NORAD_CAT_ID": 30702, "ELEMENT_SET_NO": 999, "REV_AT_EPOCH": 96285, "BSTAR": 0.00083357876, "MEAN_MOTION_DOT": 1.294e-05, "MEAN_MOTION_DDOT": 0}, "tle": {"line1": "1 30702U 99025ARL 25355.52388847  .00001294  00000+0  83358-3 0  9997", "line2": "2 30702  98.7688  15.0514 0068962 276.8790 238.3151 14.03615257962853"}}, "geometry": {"type": "Point", "coordinates": [25.694094141116736, -47.564354122759894]}}]}